<?xml version="1.0" encoding="UTF-8"?><gpx xmlns="http://www.topografix.com/GPX/1/1" version="1.1" creator="@dwayneparton/geojson-to-gpx"><wpt lat="42.892328" lon="-8.529146"><name>Inicio de Ruta</name><desc>Rúa de Mallou</desc></wpt><wpt lat="42.891881" lon="-8.529433"><name>Depósito de Auga dos Salgueiriños</name><desc>Depósito de Auga</desc></wpt><wpt lat="42.892009" lon="-8.530463"><name>Parque Avilés de Taramancos</name><desc>Parque Avilés de Taramancos</desc></wpt><wpt lat="42.892074" lon="-8.531898"><name>Parque Infantil</name><desc>Parque Infantil</desc></wpt><wpt lat="42.895668" lon="-8.531747"><name>Parque dos Salgueiriños</name><desc>Parque dos Salgueiriños</desc></wpt><wpt lat="42.896941" lon="-8.531098"><name>Río Corgo</name><desc>Río Corgo</desc></wpt><wpt lat="42.898936" lon="-8.528953"><name>Parque do Pozo da Neve</name><desc>Parque do Pozo da Neve</desc></wpt><wpt lat="42.89881" lon="-8.528472"><name>Parque infantil</name><desc>Parque Infantil</desc></wpt><wpt lat="42.898513" lon="-8.528668"><name>Castro do Pozo da Neve</name><desc>Castro do Pozo da Neve</desc></wpt><wpt lat="42.89557" lon="-8.526029"><name>Fonte de Mallou de Arriba</name><desc>Fonte de Mallou de Arriba</desc></wpt><trk><name>R19</name><desc>Sendero que discurre por los parques Avilés de Taramancos, Salgueiriños y Pozo da Neve y por zonas verdes de Mallou.</desc><trkseg/></trk></gpx>