<?xml version="1.0" encoding="UTF-8"?>
<gpx version="1.1" creator="@dwayneparton/geojson-to-gpx" xmlns="http://www.topografix.com/GPX/1/1" xmlns:xsi="http://www.w3.org/2001/XMLSchema-instance" xsi:schemaLocation="http://www.topografix.com/GPX/1/1 http://www.topografix.com/GPX/1/1/gpx.xsd http://www.garmin.com/xmlschemas/GpxExtensions/v3 http://www.garmin.com/xmlschemas/GpxExtensionsv3.xsd http://www.garmin.com/xmlschemas/TrackPointExtension/v1 http://www.garmin.com/xmlschemas/TrackPointExtensionv1.xsd http://www.garmin.com/xmlschemas/PowerExtension/v1 http://www.garmin.com/xmlschemas/PowerExtensionv1.xsd http://www.topografix.com/GPX/gpx_style/0/2 http://www.topografix.com/GPX/gpx_style/0/2/gpx_style.xsd" xmlns:gpxtpx="http://www.garmin.com/xmlschemas/TrackPointExtension/v1" xmlns:gpxx="http://www.garmin.com/xmlschemas/GpxExtensions/v3" xmlns:gpxpx="http://www.garmin.com/xmlschemas/PowerExtension/v1" xmlns:gpx_style="http://www.topografix.com/GPX/gpx_style/0/2">
  <metadata>
    <name>Ruta - 15</name>
    <author>
      <name>Obradoiro Autoctonos</name>
      <link href="https://gpx.studio"/>
    </author>
  </metadata>
  <wpt lat="42.90348363561472" lon="-8.54937062293726">
    <ele>259.0</ele>
    <name>Intersección</name>
  </wpt>
  <wpt lat="42.90228720673693" lon="-8.549883972547462">
    <ele>251.0</ele>
    <name>Punto de información</name>
    <cmt>Flecha de dirección do Xiro dos Montes (dirección Monte Pedroso)</cmt>
    <desc>Flecha de dirección do Xiro dos Montes (dirección Monte Pedroso)</desc>
  </wpt>
  <wpt lat="42.90041082236257" lon="-8.549801609403147">
    <ele>242.0</ele>
    <name>Fuente</name>
  </wpt>
  <wpt lat="42.900232" lon="-8.549884">
    <ele>243.0</ele>
    <name>Regato</name>
  </wpt>
  <wpt lat="42.90002598040101" lon="-8.549868834618394">
    <ele>242.0</ele>
    <name>Antigua iglesia</name>
  </wpt>
  <wpt lat="42.8997215832716" lon="-8.54927750480769">
    <ele>242.0</ele>
    <name>Ponte dos Tres Ollos</name>
  </wpt>
  <wpt lat="42.899154" lon="-8.550022">
    <ele>247.0</ele>
    <name>Ponte madeira</name>
  </wpt>
  <wpt lat="42.899003" lon="-8.550089">
    <ele>246.0</ele>
    <name>Ponte</name>
    <cmt>Pequena ponte de tronco de madeira. Rógase precaución.</cmt>
    <desc>Pequena ponte de tronco de madeira. Rógase precaución.</desc>
  </wpt>
  <wpt lat="42.897118" lon="-8.549018">
    <ele>238.0</ele>
    <name>Fervenza</name>
  </wpt>
  <wpt lat="42.89667674566462" lon="-8.549421665220365">
    <ele>235.0</ele>
    <name>Cabanas</name>
  </wpt>
  <wpt lat="42.896534144397435" lon="-8.549910678351722">
    <ele>234.0</ele>
    <name>Fonte</name>
  </wpt>
  <wpt lat="42.8963736317898" lon="-8.54999533232683">
    <ele>233.0</ele>
    <name>Ponte</name>
  </wpt>
  <wpt lat="42.89624959903364" lon="-8.549883290301864">
    <ele>233.0</ele>
    <name>Fonte do Cuadrado</name>
  </wpt>
  <wpt lat="42.896078141578016" lon="-8.549821044730948">
    <ele>234.0</ele>
    <name>Aviso de perigo</name>
  </wpt>
  <wpt lat="42.89254344384199" lon="-8.550766455386224">
    <ele>230.0</ele>
    <name>Ponte</name>
  </wpt>
  <wpt lat="42.88686307174524" lon="-8.549099290600566">
    <ele>228.0</ele>
    <name>Lavadoiro</name>
  </wpt>
  <wpt lat="42.886722" lon="-8.549294">
    <ele>226.0</ele>
    <name>Ponte</name>
  </wpt>
  <wpt lat="42.88610579630958" lon="-8.55006434635277">
    <ele>227.0</ele>
    <name>Merendeiro</name>
  </wpt>
  <wpt lat="42.88485347109122" lon="-8.54969247308793">
    <ele>227.0</ele>
    <name>Ponte Asén</name>
  </wpt>
  <wpt lat="42.883686206122036" lon="-8.55069175496186">
    <ele>229.0</ele>
    <name>Fonte do Ouro</name>
  </wpt>
  <wpt lat="42.88115051941858" lon="-8.552077851824777">
    <ele>224.0</ele>
    <name>Capela do Carme de Abaixo</name>
  </wpt>
  <wpt lat="42.90476438908851" lon="-8.546496370019867">
    <ele>252.0</ele>
    <name>Ponte de madeira</name>
  </wpt>
  <wpt lat="42.88211843759865" lon="-8.553587288804891">
    <ele>226.0</ele>
    <name>Fonte do Piñeiro</name>
  </wpt>
  <wpt lat="42.88316950864143" lon="-8.55495870157975">
    <ele>221.0</ele>
    <name>Paseo de madeira</name>
    <cmt>Paseo de madeira ao carón do río Sarela</cmt>
    <desc>Paseo de madeira ao carón do río Sarela</desc>
  </wpt>
  <wpt lat="42.88145369214422" lon="-8.558324472445577">
    <ele>203.0</ele>
    <name>Muíño da Perilla</name>
  </wpt>
  <wpt lat="42.880162528865924" lon="-8.559415427273507">
    <ele>198.0</ele>
    <name>Fervenza</name>
  </wpt>
  <wpt lat="42.876169" lon="-8.563695">
    <ele>184.0</ele>
    <name>Ponte de madeira</name>
  </wpt>
  <wpt lat="42.899928" lon="-8.549729">
    <ele>242.0</ele>
    <name>Lavadoiro</name>
    <cmt>Fonte lavadoiro de detrás da fábrica</cmt>
    <desc>Fonte lavadoiro de detrás da fábrica</desc>
  </wpt>
  <wpt lat="42.899092980822445" lon="-8.55005890803082">
    <ele>246.0</ele>
    <name>Ponte</name>
  </wpt>
  <wpt lat="42.891664200523394" lon="-8.549891777881697">
    <ele>232.0</ele>
    <name>Merendeiro</name>
  </wpt>
  <wpt lat="42.8834870714235" lon="-8.55078924102574">
    <ele>232.0</ele>
    <name>Finca do Espiño</name>
  </wpt>
  <wpt lat="42.881193" lon="-8.551837">
    <ele>225.0</ele>
    <name>Ponte do Carme de Abaixo</name>
  </wpt>
  <wpt lat="42.88303963471736" lon="-8.55743009977121">
    <ele>213.0</ele>
    <name>Pontella da Ribeira de San Lourenzo</name>
  </wpt>
  <wpt lat="42.880226" lon="-8.55945">
    <ele>199.0</ele>
    <name>Ponte de pedra</name>
  </wpt>
  <wpt lat="42.8790500388246" lon="-8.560457644490498">
    <ele>194.0</ele>
    <name>Ponte Sarela</name>
  </wpt>
  <wpt lat="42.87381466681009" lon="-8.564570366231209">
    <ele>176.0</ele>
    <name>Cartel informativo</name>
  </wpt>
  <trk>
    <name>Ruta - 15 - EDITADO</name>
    <extensions>
      <gpx_style:line>
        <gpx_style:color>f83434</gpx_style:color>
      </gpx_style:line>
    </extensions>
    <trkseg>
      <trkpt lat="42.904512" lon="-8.546526"/>
      <trkpt lat="42.904728" lon="-8.546489"/>
      <trkpt lat="42.904834" lon="-8.546508"/>
      <trkpt lat="42.90484" lon="-8.546534"/>
      <trkpt lat="42.904832" lon="-8.546567"/>
      <trkpt lat="42.904832" lon="-8.546634"/>
      <trkpt lat="42.904871" lon="-8.546733"/>
      <trkpt lat="42.904883" lon="-8.546816"/>
      <trkpt lat="42.904875" lon="-8.546886"/>
      <trkpt lat="42.904858" lon="-8.546937"/>
      <trkpt lat="42.904773" lon="-8.547074"/>
      <trkpt lat="42.904478" lon="-8.547479"/>
      <trkpt lat="42.904439" lon="-8.547559"/>
      <trkpt lat="42.90437" lon="-8.547637"/>
      <trkpt lat="42.904276" lon="-8.547838"/>
      <trkpt lat="42.904219" lon="-8.548002"/>
      <trkpt lat="42.904174" lon="-8.548109"/>
      <trkpt lat="42.904062" lon="-8.548286"/>
      <trkpt lat="42.903934" lon="-8.548466"/>
      <trkpt lat="42.90383" lon="-8.548621"/>
      <trkpt lat="42.903765" lon="-8.548704"/>
      <trkpt lat="42.90371" lon="-8.548844"/>
      <trkpt lat="42.903689" lon="-8.548884"/>
      <trkpt lat="42.903641" lon="-8.549088"/>
      <trkpt lat="42.903575" lon="-8.54926"/>
      <trkpt lat="42.903502" lon="-8.549375"/>
      <trkpt lat="42.903213" lon="-8.549563"/>
      <trkpt lat="42.902952" lon="-8.549745"/>
      <trkpt lat="42.902765" lon="-8.549836"/>
      <trkpt lat="42.902604" lon="-8.549874"/>
      <trkpt lat="42.902244" lon="-8.549885"/>
      <trkpt lat="42.902162" lon="-8.54986"/>
      <trkpt lat="42.902044" lon="-8.549791"/>
      <trkpt lat="42.90191" lon="-8.54974"/>
      <trkpt lat="42.901779" lon="-8.549716"/>
      <trkpt lat="42.901464" lon="-8.549608"/>
      <trkpt lat="42.901315" lon="-8.549606"/>
      <trkpt lat="42.900818" lon="-8.549667"/>
      <trkpt lat="42.900708" lon="-8.549699"/>
      <trkpt lat="42.90058" lon="-8.549721"/>
      <trkpt lat="42.900543" lon="-8.549732"/>
      <trkpt lat="42.900288" lon="-8.549871"/>
      <trkpt lat="42.90014" lon="-8.549911"/>
      <trkpt lat="42.900014" lon="-8.54986"/>
      <trkpt lat="42.899853" lon="-8.549563"/>
      <trkpt lat="42.899765" lon="-8.54934"/>
      <trkpt lat="42.899608" lon="-8.54948"/>
      <trkpt lat="42.899582" lon="-8.549525"/>
      <trkpt lat="42.899527" lon="-8.549646"/>
      <trkpt lat="42.899447" lon="-8.549713"/>
      <trkpt lat="42.899289" lon="-8.549968"/>
      <trkpt lat="42.899219" lon="-8.549978"/>
      <trkpt lat="42.899154" lon="-8.550035"/>
      <trkpt lat="42.899079" lon="-8.550067"/>
      <trkpt lat="42.899028" lon="-8.550094"/>
      <trkpt lat="42.898904" lon="-8.550096"/>
      <trkpt lat="42.898839" lon="-8.550013"/>
      <trkpt lat="42.898802" lon="-8.549796"/>
      <trkpt lat="42.898623" lon="-8.549445"/>
      <trkpt lat="42.898505" lon="-8.549386"/>
      <trkpt lat="42.898417" lon="-8.549396"/>
      <trkpt lat="42.898315" lon="-8.54948"/>
      <trkpt lat="42.898256" lon="-8.549571"/>
      <trkpt lat="42.898144" lon="-8.549619"/>
      <trkpt lat="42.89805" lon="-8.549579"/>
      <trkpt lat="42.897959" lon="-8.549469"/>
      <trkpt lat="42.897867" lon="-8.549265"/>
      <trkpt lat="42.897786" lon="-8.549249"/>
      <trkpt lat="42.897635" lon="-8.549091"/>
      <trkpt lat="42.897452" lon="-8.548994"/>
      <trkpt lat="42.897358" lon="-8.548906"/>
      <trkpt lat="42.897279" lon="-8.548817"/>
      <trkpt lat="42.897224" lon="-8.548844"/>
      <trkpt lat="42.897161" lon="-8.548908"/>
      <trkpt lat="42.897132" lon="-8.549016"/>
      <trkpt lat="42.897065" lon="-8.549182"/>
      <trkpt lat="42.896816" lon="-8.549453"/>
      <trkpt lat="42.896558" lon="-8.54985"/>
      <trkpt lat="42.896521" lon="-8.549976"/>
      <trkpt lat="42.896476" lon="-8.550067"/>
      <trkpt lat="42.896452" lon="-8.550064"/>
      <trkpt lat="42.896159" lon="-8.549791"/>
      <trkpt lat="42.896065" lon="-8.549831"/>
      <trkpt lat="42.895971" lon="-8.549847"/>
      <trkpt lat="42.895918" lon="-8.549863"/>
      <trkpt lat="42.895792" lon="-8.549863"/>
      <trkpt lat="42.895735" lon="-8.549842"/>
      <trkpt lat="42.895698" lon="-8.549801"/>
      <trkpt lat="42.895639" lon="-8.549563"/>
      <trkpt lat="42.895587" lon="-8.549509"/>
      <trkpt lat="42.895525" lon="-8.549512"/>
      <trkpt lat="42.895259" lon="-8.549699"/>
      <trkpt lat="42.895181" lon="-8.54971"/>
      <trkpt lat="42.895049" lon="-8.549868"/>
      <trkpt lat="42.894847" lon="-8.549809"/>
      <trkpt lat="42.894672" lon="-8.549702"/>
      <trkpt lat="42.894595" lon="-8.549683"/>
      <trkpt lat="42.894375" lon="-8.549573"/>
      <trkpt lat="42.894295" lon="-8.549576"/>
      <trkpt lat="42.894104" lon="-8.549506"/>
      <trkpt lat="42.89396" lon="-8.549528"/>
      <trkpt lat="42.893864" lon="-8.549571"/>
      <trkpt lat="42.893711" lon="-8.54967"/>
      <trkpt lat="42.893603" lon="-8.549871"/>
      <trkpt lat="42.893516" lon="-8.549944"/>
      <trkpt lat="42.893485" lon="-8.54996"/>
      <trkpt lat="42.893391" lon="-8.550019"/>
      <trkpt lat="42.893369" lon="-8.549989"/>
      <trkpt lat="42.893361" lon="-8.549879"/>
      <trkpt lat="42.893251" lon="-8.549788"/>
      <trkpt lat="42.892929" lon="-8.550204"/>
      <trkpt lat="42.892915" lon="-8.550249"/>
      <trkpt lat="42.892913" lon="-8.550303"/>
      <trkpt lat="42.892923" lon="-8.550359"/>
      <trkpt lat="42.892952" lon="-8.550464"/>
      <trkpt lat="42.892952" lon="-8.55052"/>
      <trkpt lat="42.892943" lon="-8.550571"/>
      <trkpt lat="42.892921" lon="-8.550628"/>
      <trkpt lat="42.892854" lon="-8.550692"/>
      <trkpt lat="42.892772" lon="-8.550724"/>
      <trkpt lat="42.892664" lon="-8.550719"/>
      <trkpt lat="42.892528" lon="-8.550687"/>
      <trkpt lat="42.89229" lon="-8.550459"/>
      <trkpt lat="42.891872" lon="-8.549914"/>
      <trkpt lat="42.891803" lon="-8.549941"/>
      <trkpt lat="42.891758" lon="-8.549874"/>
      <trkpt lat="42.891575" lon="-8.549909"/>
      <trkpt lat="42.891394" lon="-8.549986"/>
      <trkpt lat="42.891323" lon="-8.550043"/>
      <trkpt lat="42.891192" lon="-8.550056"/>
      <trkpt lat="42.891048" lon="-8.550104"/>
      <trkpt lat="42.890864" lon="-8.550104"/>
      <trkpt lat="42.890814" lon="-8.550072"/>
      <trkpt lat="42.890751" lon="-8.550115"/>
      <trkpt lat="42.890696" lon="-8.550233"/>
      <trkpt lat="42.890641" lon="-8.550295"/>
      <trkpt lat="42.890586" lon="-8.550276"/>
      <trkpt lat="42.890561" lon="-8.550137"/>
      <trkpt lat="42.890541" lon="-8.55011"/>
      <trkpt lat="42.890417" lon="-8.550088"/>
      <trkpt lat="42.890274" lon="-8.550027"/>
      <trkpt lat="42.890152" lon="-8.549842"/>
      <trkpt lat="42.890028" lon="-8.549713"/>
      <trkpt lat="42.889836" lon="-8.5493"/>
      <trkpt lat="42.88973" lon="-8.549203"/>
      <trkpt lat="42.889586" lon="-8.549136"/>
      <trkpt lat="42.88948" lon="-8.549104"/>
      <trkpt lat="42.889109" lon="-8.548731"/>
      <trkpt lat="42.888949" lon="-8.548635"/>
      <trkpt lat="42.888729" lon="-8.548659"/>
      <trkpt lat="42.888466" lon="-8.548621"/>
      <trkpt lat="42.888234" lon="-8.548608"/>
      <trkpt lat="42.887523" lon="-8.548632"/>
      <trkpt lat="42.887238" lon="-8.548691"/>
      <trkpt lat="42.887151" lon="-8.548704"/>
      <trkpt lat="42.886974" lon="-8.548855"/>
      <trkpt lat="42.886886" lon="-8.54901"/>
      <trkpt lat="42.886858" lon="-8.548989"/>
      <trkpt lat="42.886839" lon="-8.548981"/>
      <trkpt lat="42.886684" lon="-8.549241"/>
      <trkpt lat="42.886772" lon="-8.54937"/>
      <trkpt lat="42.886621" lon="-8.549504"/>
      <trkpt lat="42.886511" lon="-8.549616"/>
      <trkpt lat="42.886422" lon="-8.549734"/>
      <trkpt lat="42.886322" lon="-8.549793"/>
      <trkpt lat="42.88619" lon="-8.549903"/>
      <trkpt lat="42.886182" lon="-8.550037"/>
      <trkpt lat="42.886098" lon="-8.550067"/>
      <trkpt lat="42.885815" lon="-8.55007"/>
      <trkpt lat="42.885795" lon="-8.550102"/>
      <trkpt lat="42.885271" lon="-8.549917"/>
      <trkpt lat="42.884895" lon="-8.549807"/>
      <trkpt lat="42.884528" lon="-8.549702"/>
      <trkpt lat="42.884237" lon="-8.549885"/>
      <trkpt lat="42.884044" lon="-8.550212"/>
      <trkpt lat="42.8837" lon="-8.550692"/>
      <trkpt lat="42.883539" lon="-8.550738"/>
      <trkpt lat="42.88282" lon="-8.550644"/>
      <trkpt lat="42.882578" lon="-8.550585"/>
      <trkpt lat="42.882431" lon="-8.550526"/>
      <trkpt lat="42.882226" lon="-8.550866"/>
      <trkpt lat="42.882006" lon="-8.551226"/>
      <trkpt lat="42.881925" lon="-8.551357"/>
      <trkpt lat="42.88145" lon="-8.551762"/>
      <trkpt lat="42.881409" lon="-8.551808"/>
      <trkpt lat="42.881328" lon="-8.552049"/>
      <trkpt lat="42.881299" lon="-8.552113"/>
      <trkpt lat="42.881222" lon="-8.551993"/>
      <trkpt lat="42.881202" lon="-8.55195"/>
      <trkpt lat="42.881143" lon="-8.551934"/>
      <trkpt lat="42.881057" lon="-8.55229"/>
      <trkpt lat="42.881071" lon="-8.552384"/>
      <trkpt lat="42.88108" lon="-8.552757"/>
      <trkpt lat="42.881167" lon="-8.552883"/>
      <trkpt lat="42.881245" lon="-8.552966"/>
      <trkpt lat="42.881328" lon="-8.553023"/>
      <trkpt lat="42.881656" lon="-8.553173"/>
      <trkpt lat="42.881835" lon="-8.553219"/>
      <trkpt lat="42.88201" lon="-8.55335"/>
      <trkpt lat="42.882232" lon="-8.553819"/>
      <trkpt lat="42.882236" lon="-8.553876"/>
      <trkpt lat="42.882146" lon="-8.554198"/>
      <trkpt lat="42.882079" lon="-8.554393"/>
      <trkpt lat="42.882057" lon="-8.554493"/>
      <trkpt lat="42.882073" lon="-8.554562"/>
      <trkpt lat="42.882153" lon="-8.554651"/>
      <trkpt lat="42.882254" lon="-8.554715"/>
      <trkpt lat="42.882307" lon="-8.554699"/>
      <trkpt lat="42.882684" lon="-8.554463"/>
      <trkpt lat="42.882743" lon="-8.554444"/>
      <trkpt lat="42.882757" lon="-8.554468"/>
      <trkpt lat="42.882847" lon="-8.554428"/>
      <trkpt lat="42.882873" lon="-8.554536"/>
      <trkpt lat="42.882942" lon="-8.554511"/>
      <trkpt lat="42.882975" lon="-8.554519"/>
      <trkpt lat="42.883012" lon="-8.554552"/>
      <trkpt lat="42.883036" lon="-8.554592"/>
      <trkpt lat="42.883115" lon="-8.554782"/>
      <trkpt lat="42.883175" lon="-8.554965"/>
      <trkpt lat="42.883352" lon="-8.555067"/>
      <trkpt lat="42.883431" lon="-8.555169"/>
      <trkpt lat="42.88351" lon="-8.555249"/>
      <trkpt lat="42.883553" lon="-8.555292"/>
      <trkpt lat="42.883624" lon="-8.555179"/>
      <trkpt lat="42.883651" lon="-8.555236"/>
      <trkpt lat="42.883686" lon="-8.55538"/>
      <trkpt lat="42.883683" lon="-8.555512"/>
      <trkpt lat="42.883645" lon="-8.555657"/>
      <trkpt lat="42.883567" lon="-8.555764"/>
      <trkpt lat="42.883545" lon="-8.555861"/>
      <trkpt lat="42.883543" lon="-8.555984"/>
      <trkpt lat="42.883462" lon="-8.556123"/>
      <trkpt lat="42.883378" lon="-8.556209"/>
      <trkpt lat="42.883337" lon="-8.556223"/>
      <trkpt lat="42.883229" lon="-8.556249"/>
      <trkpt lat="42.883103" lon="-8.556325"/>
      <trkpt lat="42.883061" lon="-8.556386"/>
      <trkpt lat="42.883046" lon="-8.556448"/>
      <trkpt lat="42.883034" lon="-8.556609"/>
      <trkpt lat="42.883073" lon="-8.556802"/>
      <trkpt lat="42.883063" lon="-8.556842"/>
      <trkpt lat="42.882951" lon="-8.556861"/>
      <trkpt lat="42.882944" lon="-8.557038"/>
      <trkpt lat="42.882932" lon="-8.557113"/>
      <trkpt lat="42.882898" lon="-8.557151"/>
      <trkpt lat="42.882973" lon="-8.557293"/>
      <trkpt lat="42.88301" lon="-8.557451"/>
      <trkpt lat="42.883073" lon="-8.557414"/>
      <trkpt lat="42.883215" lon="-8.557427"/>
      <trkpt lat="42.883209" lon="-8.557518"/>
      <trkpt lat="42.883209" lon="-8.55762"/>
      <trkpt lat="42.883236" lon="-8.557719"/>
      <trkpt lat="42.883211" lon="-8.557923"/>
      <trkpt lat="42.883132" lon="-8.558052"/>
      <trkpt lat="42.88292" lon="-8.558186"/>
      <trkpt lat="42.882816" lon="-8.558224"/>
      <trkpt lat="42.882674" lon="-8.558272"/>
      <trkpt lat="42.882545" lon="-8.558358"/>
      <trkpt lat="42.882509" lon="-8.558409"/>
      <trkpt lat="42.882456" lon="-8.558443"/>
      <trkpt lat="42.882427" lon="-8.558497"/>
      <trkpt lat="42.88225" lon="-8.558677"/>
      <trkpt lat="42.882191" lon="-8.558741"/>
      <trkpt lat="42.882004" lon="-8.55883"/>
      <trkpt lat="42.881933" lon="-8.558838"/>
      <trkpt lat="42.881753" lon="-8.558902"/>
      <trkpt lat="42.881668" lon="-8.558857"/>
      <trkpt lat="42.88158" lon="-8.558755"/>
      <trkpt lat="42.881552" lon="-8.558607"/>
      <trkpt lat="42.881574" lon="-8.558516"/>
      <trkpt lat="42.881597" lon="-8.558478"/>
      <trkpt lat="42.881597" lon="-8.558425"/>
      <trkpt lat="42.881534" lon="-8.558374"/>
      <trkpt lat="42.881483" lon="-8.558355"/>
      <trkpt lat="42.88145" lon="-8.558315"/>
      <trkpt lat="42.881391" lon="-8.558288"/>
      <trkpt lat="42.88133" lon="-8.558288"/>
      <trkpt lat="42.881285" lon="-8.558296"/>
      <trkpt lat="42.881051" lon="-8.558395"/>
      <trkpt lat="42.880984" lon="-8.55846"/>
      <trkpt lat="42.880732" lon="-8.559007"/>
      <trkpt lat="42.880597" lon="-8.559181"/>
      <trkpt lat="42.880371" lon="-8.559221"/>
      <trkpt lat="42.880306" lon="-8.559272"/>
      <trkpt lat="42.880261" lon="-8.559382"/>
      <trkpt lat="42.880229" lon="-8.559417"/>
      <trkpt lat="42.880127" lon="-8.559417"/>
      <trkpt lat="42.879885" lon="-8.559618"/>
      <trkpt lat="42.879769" lon="-8.559701"/>
      <trkpt lat="42.879703" lon="-8.559768"/>
      <trkpt lat="42.879663" lon="-8.559865"/>
      <trkpt lat="42.879563" lon="-8.559948"/>
      <trkpt lat="42.879543" lon="-8.559991"/>
      <trkpt lat="42.879477" lon="-8.56005"/>
      <trkpt lat="42.879477" lon="-8.560115"/>
      <trkpt lat="42.879449" lon="-8.560208"/>
      <trkpt lat="42.879315" lon="-8.560401"/>
      <trkpt lat="42.879148" lon="-8.560506"/>
      <trkpt lat="42.878971" lon="-8.560407"/>
      <trkpt lat="42.878712" lon="-8.561179"/>
      <trkpt lat="42.878616" lon="-8.561477"/>
      <trkpt lat="42.878474" lon="-8.561735"/>
      <trkpt lat="42.878282" lon="-8.561869"/>
      <trkpt lat="42.878154" lon="-8.561901"/>
      <trkpt lat="42.877987" lon="-8.56189"/>
      <trkpt lat="42.877947" lon="-8.561866"/>
      <trkpt lat="42.877884" lon="-8.562089"/>
      <trkpt lat="42.877835" lon="-8.562392"/>
      <trkpt lat="42.877802" lon="-8.562523"/>
      <trkpt lat="42.877792" lon="-8.562628"/>
      <trkpt lat="42.877859" lon="-8.562963"/>
      <trkpt lat="42.877875" lon="-8.563156"/>
      <trkpt lat="42.877882" lon="-8.563301"/>
      <trkpt lat="42.877926" lon="-8.563443"/>
      <trkpt lat="42.877835" lon="-8.563406"/>
      <trkpt lat="42.877554" lon="-8.563226"/>
      <trkpt lat="42.877401" lon="-8.563218"/>
      <trkpt lat="42.877218" lon="-8.563231"/>
      <trkpt lat="42.877026" lon="-8.563328"/>
      <trkpt lat="42.876941" lon="-8.563403"/>
      <trkpt lat="42.876874" lon="-8.56351"/>
      <trkpt lat="42.87677" lon="-8.563599"/>
      <trkpt lat="42.876426" lon="-8.56358"/>
      <trkpt lat="42.87633" lon="-8.563601"/>
      <trkpt lat="42.875911" lon="-8.56384"/>
      <trkpt lat="42.875545" lon="-8.564124"/>
      <trkpt lat="42.875131" lon="-8.564382"/>
      <trkpt lat="42.874802" lon="-8.564629"/>
      <trkpt lat="42.874543" lon="-8.56483"/>
      <trkpt lat="42.874372" lon="-8.564857"/>
      <trkpt lat="42.874315" lon="-8.564838"/>
      <trkpt lat="42.874262" lon="-8.564849"/>
      <trkpt lat="42.874238" lon="-8.564902"/>
      <trkpt lat="42.874207" lon="-8.564937"/>
      <trkpt lat="42.874138" lon="-8.564934"/>
      <trkpt lat="42.874055" lon="-8.56487"/>
      <trkpt lat="42.87382" lon="-8.564567"/>
      <trkpt lat="42.873605" lon="-8.564661"/>
      <trkpt lat="42.873529" lon="-8.564709"/>
      <trkpt lat="42.87331" lon="-8.565001"/>
      <trkpt lat="42.873216" lon="-8.565181"/>
      <trkpt lat="42.872831" lon="-8.56564"/>
      <trkpt lat="42.87255" lon="-8.5659"/>
      <trkpt lat="42.872249" lon="-8.566085"/>
      <trkpt lat="42.872074" lon="-8.566131"/>
      <trkpt lat="42.871876" lon="-8.566233"/>
      <trkpt lat="42.87163" lon="-8.566525"/>
      <trkpt lat="42.871398" lon="-8.566756"/>
      <trkpt lat="42.871146" lon="-8.567338"/>
      <trkpt lat="42.87107" lon="-8.567595"/>
      <trkpt lat="42.870849" lon="-8.567434"/>
      <trkpt lat="42.870759" lon="-8.567311"/>
    </trkseg>
  </trk>
</gpx>
